*******************************************************************************
 Revised: April 12, 2021               Jupiter                              599
 
 PHYSICAL DATA:
  Mass x 10^22 (g)      = 189818722 +- 8817 Density (g/cm^3)  = 1.3262 +- .0003
  Equat. radius (1 bar) = 71492+-4 km       Polar radius (km)     = 66854+-10
  Vol. Mean Radius (km) = 69911+-6          Flattening            = 0.06487
  Geometric Albedo      = 0.52              Rocky core mass (Mc/M)= 0.0261
  Sid. rot. period (III)= 9h 55m 29.71 s    Sid. rot. rate (rad/s)= 0.00017585
  Mean solar day, hrs   = ~9.9259         
  GM (km^3/s^2)         = 126686531.900     GM 1-sigma (km^3/s^2) =  +- 1.2732
  Equ. grav, ge (m/s^2) = 24.79             Pol. grav, gp (m/s^2) =  28.34
  Vis. magnitude V(1,0) = -9.40
  Vis. mag. (opposition)= -2.70             Obliquity to orbit    =  3.13 deg
  Sidereal orbit period = 11.861982204 y    Sidereal orbit period = 4332.589 d
  Mean daily motion     = 0.0831294 deg/d   Mean orbit speed, km/s= 13.0697
  Atmos. temp. (1 bar)  = 165+-5 K          Escape speed, km/s    =  59.5           
  A_roche(ice)/Rp       =  2.76             Hill's sphere rad. Rp = 740
                                 Perihelion   Aphelion     Mean
  Solar Constant (W/m^2)         56           46           51
  Maximum Planetary IR (W/m^2)   13.7         13.4         13.6
  Minimum Planetary IR (W/m^2)   13.7         13.4         13.6
*******************************************************************************


*******************************************************************************
Ephemeris / WWW_USER Tue Dec  7 17:38:32 2021 Pasadena, USA      / Horizons
*******************************************************************************
Target body name: Jupiter (599)                   {source: jup365_merged}
Center body name: Sun (10)                        {source: jup365_merged}
Center-site name: BODY CENTER
*******************************************************************************
Start time      : A.D. 2021-Nov-23 00:00:00.0000 TDB
Stop  time      : A.D. 2022-Nov-23 00:00:00.0000 TDB
Step-size       : 1440 minutes
*******************************************************************************
Center geodetic : 0.00000000,0.00000000,0.0000000 {E-lon(deg),Lat(deg),Alt(km)}
Center cylindric: 0.00000000,0.00000000,0.0000000 {E-lon(deg),Dxy(km),Dz(km)}
Center radii    : 696000.0 x 696000.0 x 696000.0 k{Equator, meridian, pole}    
Output units    : KM-S
Output type     : GEOMETRIC cartesian states
Output format   : 3 (position, velocity, LT, range, range-rate)
Reference frame : ICRF
*******************************************************************************
            JDTDB,            Calendar Date (TDB),                      X,                      Y,                      Z,                     VX,                     VY,                     VZ,                     LT,                     RG,                     RR,
**************************************************************************************************************************************************************************************************************************************************************************
$$SOE
2459591.500000000, A.D. 2022-Jan-12 00:00:00.0000,  7.010591612941561E+08, -2.292806199883208E+08, -1.153409693680203E+08,  4.336105057835915E+00,  1.189591845417283E+01,  4.993505003062606E+00,  2.490267850917449E+03,  7.465635201049197E+08, -3.530752358938132E-01,
2459592.500000000, A.D. 2022-Jan-13 00:00:00.0000,  7.014328355130113E+08, -2.282525109167222E+08, -1.149093817920329E+08,  4.314448358525143E+00,  1.190178222981102E+01,  4.996426473368927E+00,  2.490165772929729E+03,  7.465329178940731E+08, -3.542405209857550E-01,
2459593.500000000, A.D. 2022-Jan-14 00:00:00.0000,  7.018048235189462E+08, -2.272239102241867E+08, -1.144775454921570E+08,  4.295460470993782E+00,  1.190902131771327E+01,  5.000056882624408E+00,  2.490063955879724E+03,  7.465023939103861E+08, -3.534265320136208E-01,
2459594.500000000, A.D. 2022-Jan-15 00:00:00.0000,  7.021750373579305E+08, -2.261947571162591E+08, -1.140454324877750E+08,  4.275453123193452E+00,  1.191378514319720E+01,  5.002490716015155E+00,  2.489962047928303E+03,  7.464718426751395E+08, -3.526328556225635E-01,
2459595.500000000, A.D. 2022-Jan-16 00:00:00.0000,  7.025436065965624E+08, -2.251650829725485E+08, -1.136130558692863E+08,  4.255105032649772E+00,  1.192085984417949E+01,  5.006014470977223E+00,  2.489860494474658E+03,  7.464413977156531E+08, -3.530259206065841E-01,
2459596.500000000, A.D. 2022-Jan-17 00:00:00.0000,  7.029104178607157E+08, -2.241349746037323E+08, -1.131804591353502E+08,  4.237091231374548E+00,  1.192496100220928E+01,  5.008163997356792E+00,  2.489759048975190E+03,  7.464109851200144E+08, -3.501175214150549E-01,
2459597.500000000, A.D. 2022-Jan-18 00:00:00.0000,  7.032756813289500E+08, -2.231043273262926E+08, -1.127475881008075E+08,  4.217456303141523E+00,  1.193188303093473E+01,  5.011640132423826E+00,  2.489658238982619E+03,  7.463807630445508E+08, -3.497820851931369E-01,
2459598.500000000, A.D. 2022-Jan-19 00:00:00.0000,  7.036393119001867E+08, -2.220731614220623E+08, -1.123144534822183E+08,  4.199773134714299E+00,  1.193879435343822E+01,  5.015143624877100E+00,  2.489557823920319E+03,  7.463506593662035E+08, -3.476026169412696E-01,
2459599.500000000, A.D. 2022-Jan-20 00:00:00.0000,  7.040012190223079E+08, -2.210413410761519E+08, -1.118809922937281E+08,  4.178075950807343E+00,  1.194469376370997E+01,  5.018094813269803E+00,  2.489457353982219E+03,  7.463205392365055E+08, -3.488179397249331E-01,
2459600.500000000, A.D. 2022-Jan-21 00:00:00.0000,  7.043614347091247E+08, -2.200090674691987E+08, -1.114472996511060E+08,  4.159557193453630E+00,  1.195135310205528E+01,  5.021469330128804E+00,  2.489357177750258E+03,  7.462905071576929E+08, -3.473226217944801E-01,
2459601.500000000, A.D. 2022-Jan-22 00:00:00.0000,  7.047199035079145E+08, -2.189762509985862E+08, -1.110133332844734E+08,  4.139395792332478E+00,  1.195599686155003E+01,  5.023856478575031E+00,  2.489257011359862E+03,  7.462604780293070E+08, -3.466347576813914E-01,
2459602.500000000, A.D. 2022-Jan-23 00:00:00.0000,  7.050767469348993E+08, -2.179429441427588E+08, -1.105791164691036E+08,  4.119665408116068E+00,  1.196305410413533E+01,  5.027394815731267E+00,  2.489157301136435E+03,  7.462305856563380E+08, -3.464181578904361E-01,
2459603.500000000, A.D. 2022-Jan-24 00:00:00.0000,  7.054318350478814E+08, -2.169091897467857E+08, -1.101446721559793E+08,  4.101322751126926E+00,  1.196688754973413E+01,  5.029421675848535E+00,  2.489057690694701E+03,  7.462007231971680E+08, -3.437255438110554E-01,
2459604.500000000, A.D. 2022-Jan-25 00:00:00.0000,  7.057853950602041E+08, -2.158749201085085E+08, -1.097099635953577E+08,  4.082071940754254E+00,  1.197400247252913E+01,  5.033006909722284E+00,  2.488958812740638E+03,  7.461710803322775E+08, -3.430728975635361E-01,
2459605.500000000, A.D. 2022-Jan-26 00:00:00.0000,  7.061373188108504E+08, -2.148401270932914E+08, -1.092749882771509E+08,  4.064469753951919E+00,  1.198061140976320E+01,  5.036379207352964E+00,  2.488860318321283E+03,  7.461415524481997E+08, -3.406760841749079E-01,
2459606.500000000, A.D. 2022-Jan-27 00:00:00.0000,  7.064875456483661E+08, -2.138046651460213E+08, -1.088396780363304E+08,  4.042617611166929E+00,  1.198712121304292E+01,  5.039629997526636E+00,  2.488761844713769E+03,  7.461120308033551E+08, -3.422477305309124E-01,
2459607.500000000, A.D. 2022-Jan-28 00:00:00.0000,  7.068360436917849E+08, -2.127687408159221E+08, -1.084041316702679E+08,  4.024030855029305E+00,  1.199356807004684E+01,  5.042913309416257E+00,  2.488663538811360E+03,  7.460825594352361E+08, -3.407115768521098E-01,
2459608.500000000, A.D. 2022-Jan-29 00:00:00.0000,  7.071827805982145E+08, -2.117322564406811E+08, -1.079683025831687E+08,  4.003168745854746E+00,  1.199842903846233E+01,  5.045405222437808E+00,  2.488565183146817E+03,  7.460530731488044E+08, -3.407616643109131E-01,
2459609.500000000, A.D. 2022-Jan-30 00:00:00.0000,  7.075278521332190E+08, -2.106952993392880E+08, -1.075322309654984E+08,  3.983417202478496E+00,  1.200539741918340E+01,  5.048914661824767E+00,  2.488467183502228E+03,  7.460236935944700E+08, -3.405029159574555E-01,
2459610.500000000, A.D. 2022-Jan-31 00:00:00.0000,  7.078711217935077E+08, -2.096578861647670E+08, -1.070959274112998E+08,  3.964080693116944E+00,  1.200889399686992E+01,  5.050777062066237E+00,  2.488369128832896E+03,  7.459942975441325E+08, -3.386336033468001E-01,
2459611.500000000, A.D. 2022-Feb-01 00:00:00.0000,  7.082128280750592E+08, -2.086200079563139E+08, -1.066593830133739E+08,  3.944772929438595E+00,  1.201574509317829E+01,  5.054249121967825E+00,  2.488271761207964E+03,  7.459651074645244E+08, -3.379100910899016E-01,
2459612.500000000, A.D. 2022-Feb-02 00:00:00.0000,  7.085528610024234E+08, -2.075816383762699E+08, -1.062225865072205E+08,  3.926834442048732E+00,  1.202154171066323E+01,  5.057243367789303E+00,  2.488174703173861E+03,  7.459360101979123E+08, -3.355180782441615E-01,
2459613.500000000, A.D. 2022-Feb-03 00:00:00.0000,  7.088912074758377E+08, -2.065426405582699E+08, -1.057854730170541E+08,  3.904897176865028E+00,  1.202807142014345E+01,  5.060516712419677E+00,  2.488077756821816E+03,  7.459069464127384E+08, -3.371620448188068E-01,
2459614.500000000, A.D. 2022-Feb-04 00:00:00.0000,  7.092277924278641E+08, -2.055032165944847E+08, -1.053481400217315E+08,  3.886316781993708E+00,  1.203369965618151E+01,  5.063423612402333E+00,  2.487980918685303E+03,  7.458779150697650E+08, -3.353127496660027E-01,
2459615.500000000, A.D. 2022-Feb-05 00:00:00.0000,  7.095626300659122E+08, -2.044632646829295E+08, -1.049105381553067E+08,  3.865220350502314E+00,  1.203837954925758E+01,  5.065839780069330E+00,  2.487884116886894E+03,  7.458488946206814E+08, -3.355243210618597E-01,
